[{"OBJECT_NAME":"FENGYUN 2B","OBJECT_ID":"2000-032A","EPOCH":"2026-03-06T00:26:30.420096","MEAN_MOTION":1.00081163,"ECCENTRICITY":0.00040404,"INCLINATION":13.1701,"RA_OF_ASC_NODE":17.6617,"ARG_OF_PERICENTER":293.5792,"MEAN_ANOMALY":256.1544,"EPHEMERIS_TYPE":0,"CLASSIFICATION_TYPE":"U","NORAD_CAT_ID":26382,"ELEMENT_SET_NO":999,"REV_AT_EPOCH":9389,"BSTAR":0,"MEAN_MOTION_DOT":1.22e-6,"MEAN_MOTION_DDOT":0},{"OBJECT_NAME":"TDRS 8","OBJECT_ID":"2000-034A","EPOCH":"2026-03-05T21:14:51.305856","MEAN_MOTION":1.00276226,"ECCENTRICITY":0.00061468,"INCLINATION":12.5213,"RA_OF_ASC_NODE":32.1832,"ARG_OF_PERICENTER":308.7491,"MEAN_ANOMALY":226.1757,"EPHEMERIS_TYPE":0,"CLASSIFICATION_TYPE":"U","NORAD_CAT_ID":26388,"ELEMENT_SET_NO":999,"REV_AT_EPOCH":9414,"BSTAR":0,"MEAN_MOTION_DOT":-1.99e-6,"MEAN_MOTION_DDOT":0},{"OBJECT_NAME":"COSMOS 2371","OBJECT_ID":"2000-036A","EPOCH":"2026-03-05T20:57:21.525120","MEAN_MOTION":1.00263744,"ECCENTRICITY":0.00019955,"INCLINATION":13.9359,"RA_OF_ASC_NODE":8.2751,"ARG_OF_PERICENTER":213.1022,"MEAN_ANOMALY":328.5684,"EPHEMERIS_TYPE":0,"CLASSIFICATION_TYPE":"U","NORAD_CAT_ID":26394,"ELEMENT_SET_NO":999,"REV_AT_EPOCH":9400,"BSTAR":0,"MEAN_MOTION_DOT":-8.2e-7,"MEAN_MOTION_DDOT":0},{"OBJECT_NAME":"SL-12 R/B(2)","OBJECT_ID":"2000-036D","EPOCH":"2026-03-06T00:20:01.042944","MEAN_MOTION":1.00191638,"ECCENTRICITY":0.00161125,"INCLINATION":13.9054,"RA_OF_ASC_NODE":8.153,"ARG_OF_PERICENTER":71.5051,"MEAN_ANOMALY":102.877,"EPHEMERIS_TYPE":0,"CLASSIFICATION_TYPE":"U","NORAD_CAT_ID":26397,"ELEMENT_SET_NO":999,"REV_AT_EPOCH":4629,"BSTAR":0,"MEAN_MOTION_DOT":4.9e-7,"MEAN_MOTION_DDOT":0},{"OBJECT_NAME":"FENGYUN 2B AKM","OBJECT_ID":"2000-032C","EPOCH":"2026-03-03T01:35:56.304096","MEAN_MOTION":1.00192807,"ECCENTRICITY":0.002268,"INCLINATION":14.3777,"RA_OF_ASC_NODE":7.0654,"ARG_OF_PERICENTER":35.0353,"MEAN_ANOMALY":325.1205,"EPHEMERIS_TYPE":0,"CLASSIFICATION_TYPE":"U","NORAD_CAT_ID":26460,"ELEMENT_SET_NO":999,"REV_AT_EPOCH":12112,"BSTAR":0,"MEAN_MOTION_DOT":1.8e-7,"MEAN_MOTION_DDOT":0},{"OBJECT_NAME":"RADUGA-1 5","OBJECT_ID":"2000-049A","EPOCH":"2026-03-06T06:26:38.736960","MEAN_MOTION":1.0024309,"ECCENTRICITY":0.00013959,"INCLINATION":13.9091,"RA_OF_ASC_NODE":8.8283,"ARG_OF_PERICENTER":18.384,"MEAN_ANOMALY":335.9555,"EPHEMERIS_TYPE":0,"CLASSIFICATION_TYPE":"U","NORAD_CAT_ID":26477,"ELEMENT_SET_NO":999,"REV_AT_EPOCH":9338,"BSTAR":0,"MEAN_MOTION_DOT":-3.32e-6,"MEAN_MOTION_DDOT":0},{"OBJECT_NAME":"NSS-11","OBJECT_ID":"2000-059A","EPOCH":"2026-03-06T05:30:38.530368","MEAN_MOTION":1.002727,"ECCENTRICITY":0.00031726,"INCLINATION":1.8606,"RA_OF_ASC_NODE":82.649,"ARG_OF_PERICENTER":270.9226,"MEAN_ANOMALY":69.0344,"EPHEMERIS_TYPE":0,"CLASSIFICATION_TYPE":"U","NORAD_CAT_ID":26554,"ELEMENT_SET_NO":999,"REV_AT_EPOCH":4025,"BSTAR":0,"MEAN_MOTION_DOT":2.0e-7,"MEAN_MOTION_DDOT":0},{"OBJECT_NAME":"USA 153","OBJECT_ID":"2000-065A","EPOCH":"2026-03-06T06:02:28.205376","MEAN_MOTION":1.00269384,"ECCENTRICITY":0.00026602,"INCLINATION":11.4485,"RA_OF_ASC_NODE":36.257,"ARG_OF_PERICENTER":347.5056,"MEAN_ANOMALY":5.2118,"EPHEMERIS_TYPE":0,"CLASSIFICATION_TYPE":"U","NORAD_CAT_ID":26575,"ELEMENT_SET_NO":999,"REV_AT_EPOCH":3189,"BSTAR":0,"MEAN_MOTION_DOT":-3.28e-6,"MEAN_MOTION_DDOT":0},{"OBJECT_NAME":"AMC-6","OBJECT_ID":"2000-067A","EPOCH":"2026-03-06T05:23:21.094944","MEAN_MOTION":1.00272794,"ECCENTRICITY":0.00030911,"INCLINATION":0.0443,"RA_OF_ASC_NODE":308.8885,"ARG_OF_PERICENTER":40.6892,"MEAN_ANOMALY":120.1377,"EPHEMERIS_TYPE":0,"CLASSIFICATION_TYPE":"U","NORAD_CAT_ID":26580,"ELEMENT_SET_NO":999,"REV_AT_EPOCH":9286,"BSTAR":0,"MEAN_MOTION_DOT":8.3e-7,"MEAN_MOTION_DDOT":0},{"OBJECT_NAME":"USA 157 (MILSTAR-2 2)","OBJECT_ID":"2001-009A","EPOCH":"2026-03-06T01:15:48.193632","MEAN_MOTION":1.00267346,"ECCENTRICITY":0.00379212,"INCLINATION":11.4293,"RA_OF_ASC_NODE":20.392,"ARG_OF_PERICENTER":181.8138,"MEAN_ANOMALY":190.5527,"EPHEMERIS_TYPE":0,"CLASSIFICATION_TYPE":"U","NORAD_CAT_ID":26715,"ELEMENT_SET_NO":999,"REV_AT_EPOCH":3191,"BSTAR":0,"MEAN_MOTION_DOT":1.07e-6,"MEAN_MOTION_DDOT":0},{"OBJECT_NAME":"TITAN 4 CENTAUR R/B","OBJECT_ID":"2001-009B","EPOCH":"2026-03-05T17:32:47.027040","MEAN_MOTION":1.00474457,"ECCENTRICITY":0.00134367,"INCLINATION":12.5486,"RA_OF_ASC_NODE":13.0296,"ARG_OF_PERICENTER":145.0576,"MEAN_ANOMALY":215.038,"EPHEMERIS_TYPE":0,"CLASSIFICATION_TYPE":"U","NORAD_CAT_ID":26716,"ELEMENT_SET_NO":999,"REV_AT_EPOCH":2521,"BSTAR":0,"MEAN_MOTION_DOT":-3.02e-6,"MEAN_MOTION_DDOT":0},{"OBJECT_NAME":"USA 159 (DSP 21)","OBJECT_ID":"2001-033A","EPOCH":"2026-03-05T04:30:26.664768","MEAN_MOTION":1.00279118,"ECCENTRICITY":0.0002002,"INCLINATION":12.6899,"RA_OF_ASC_NODE":17.164,"ARG_OF_PERICENTER":244.3968,"MEAN_ANOMALY":280.0364,"EPHEMERIS_TYPE":0,"CLASSIFICATION_TYPE":"U","NORAD_CAT_ID":26880,"ELEMENT_SET_NO":999,"REV_AT_EPOCH":3192,"BSTAR":0,"MEAN_MOTION_DOT":-3.02e-6,"MEAN_MOTION_DDOT":0},{"OBJECT_NAME":"IUS R/B(2)","OBJECT_ID":"2001-033D","EPOCH":"2026-03-05T15:03:25.552512","MEAN_MOTION":0.99904164,"ECCENTRICITY":0.00070412,"INCLINATION":12.8233,"RA_OF_ASC_NODE":17.4474,"ARG_OF_PERICENTER":2.0259,"MEAN_ANOMALY":357.985,"EPHEMERIS_TYPE":0,"CLASSIFICATION_TYPE":"U","NORAD_CAT_ID":26883,"ELEMENT_SET_NO":999,"REV_AT_EPOCH":2475,"BSTAR":0,"MEAN_MOTION_DOT":-1.77e-6,"MEAN_MOTION_DDOT":0},{"OBJECT_NAME":"COSMOS 2379","OBJECT_ID":"2001-037A","EPOCH":"2026-03-06T05:59:35.979936","MEAN_MOTION":1.00321141,"ECCENTRICITY":0.00064177,"INCLINATION":13.1753,"RA_OF_ASC_NODE":15.0271,"ARG_OF_PERICENTER":246.2113,"MEAN_ANOMALY":117.3844,"EPHEMERIS_TYPE":0,"CLASSIFICATION_TYPE":"U","NORAD_CAT_ID":26892,"ELEMENT_SET_NO":999,"REV_AT_EPOCH":8983,"BSTAR":0,"MEAN_MOTION_DOT":-3.67e-6,"MEAN_MOTION_DDOT":0},{"OBJECT_NAME":"SL-12 R/B(2)","OBJECT_ID":"2001-037D","EPOCH":"2026-03-05T19:35:31.985088","MEAN_MOTION":1.00196346,"ECCENTRICITY":0.00193183,"INCLINATION":13.1691,"RA_OF_ASC_NODE":15.2545,"ARG_OF_PERICENTER":77.1258,"MEAN_ANOMALY":101.4078,"EPHEMERIS_TYPE":0,"CLASSIFICATION_TYPE":"U","NORAD_CAT_ID":26895,"ELEMENT_SET_NO":999,"REV_AT_EPOCH":8976,"BSTAR":0,"MEAN_MOTION_DOT":-2.84e-6,"MEAN_MOTION_DDOT":0},{"OBJECT_NAME":"INTELSAT 902 (IS-902)","OBJECT_ID":"2001-039A","EPOCH":"2026-03-05T22:19:00.154560","MEAN_MOTION":1.0027199,"ECCENTRICITY":0.00046027,"INCLINATION":5.8564,"RA_OF_ASC_NODE":73.0406,"ARG_OF_PERICENTER":273.894,"MEAN_ANOMALY":101.3804,"EPHEMERIS_TYPE":0,"CLASSIFICATION_TYPE":"U","NORAD_CAT_ID":26900,"ELEMENT_SET_NO":999,"REV_AT_EPOCH":8966,"BSTAR":0,"MEAN_MOTION_DOT":-2.87e-6,"MEAN_MOTION_DDOT":0},{"OBJECT_NAME":"SL-12 R/B(2)","OBJECT_ID":"2001-045D","EPOCH":"2026-03-05T21:13:21.448992","MEAN_MOTION":1.00209541,"ECCENTRICITY":0.00258495,"INCLINATION":13.8092,"RA_OF_ASC_NODE":12.8628,"ARG_OF_PERICENTER":24.907,"MEAN_ANOMALY":164.3268,"EPHEMERIS_TYPE":0,"CLASSIFICATION_TYPE":"U","NORAD_CAT_ID":26939,"ELEMENT_SET_NO":999,"REV_AT_EPOCH":8969,"BSTAR":0,"MEAN_MOTION_DOT":-1.46e-6,"MEAN_MOTION_DDOT":0}]
