FENGYUN 2B              
1 26382U 00032A   26065.01840764  .00000122  00000+0  00000+0 0  9998
2 26382  13.1701  17.6617 0004040 293.5792 256.1544  1.00081163 93895
TDRS 8                  
1 26388U 00034A   26064.88531604 -.00000199  00000+0  00000+0 0  9995
2 26388  12.5213  32.1832 0006146 308.7491 226.1757  1.00276226 94145
COSMOS 2371             
1 26394U 00036A   26064.87316580 -.00000082  00000+0  00000+0 0  9998
2 26394  13.9359   8.2751 0001995 213.1022 328.5684  1.00263744 94000
SL-12 R/B(2)            
1 26397U 00036D   26065.01390096  .00000049  00000+0  00000+0 0  9994
2 26397  13.9054   8.1530 0016112  71.5051 102.8770  1.00191638 46293
FENGYUN 2B AKM          
1 26460U 00032C   26062.06662389  .00000018  00000+0  00000+0 0  9996
2 26460  14.3777   7.0654 0022680  35.0353 325.1205  1.00192807121121
RADUGA-1 5              
1 26477U 00049A   26065.26850390 -.00000332  00000+0  00000+0 0  9998
2 26477  13.9091   8.8283 0001395  18.3840 335.9555  1.00243090 93389
NSS-11                  
1 26554U 00059A   26065.22961262  .00000020  00000+0  00000+0 0  9995
2 26554   1.8606  82.6490 0003172 270.9226  69.0344  1.00272700 40251
USA 153                 
1 26575U 00065A   26065.25171534 -.00000328  00000+0  00000+0 0  9995
2 26575  11.4485  36.2570 0002660 347.5056   5.2118  1.00269384 31898
AMC-6                   
1 26580U 00067A   26065.22454971  .00000083  00000+0  00000+0 0  9996
2 26580   0.0443 308.8885 0003091  40.6892 120.1377  1.00272794 92864
USA 157 (MILSTAR-2 2)   
1 26715U 01009A   26065.05264113  .00000107  00000+0  00000+0 0  9998
2 26715  11.4293  20.3920 0037921 181.8138 190.5527  1.00267346 31913
TITAN 4 CENTAUR R/B     
1 26716U 01009B   26064.73109985 -.00000302  00000+0  00000+0 0  9996
2 26716  12.5486  13.0296 0013436 145.0576 215.0380  1.00474457 25217
USA 159 (DSP 21)        
1 26880U 01033A   26064.18780862 -.00000302  00000+0  00000+0 0  9993
2 26880  12.6899  17.1640 0002002 244.3968 280.0364  1.00279118 31927
IUS R/B(2)              
1 26883U 01033D   26064.62737908 -.00000177  00000+0  00000+0 0  9998
2 26883  12.8233  17.4474 0007041   2.0259 357.9850  0.99904164 24752
COSMOS 2379             
1 26892U 01037A   26065.24972199 -.00000367  00000+0  00000+0 0  9995
2 26892  13.1753  15.0271 0006417 246.2113 117.3844  1.00321141 89831
SL-12 R/B(2)            
1 26895U 01037D   26064.81634242 -.00000284  00000+0  00000+0 0  9992
2 26895  13.1691  15.2545 0019318  77.1258 101.4078  1.00196346 89768
INTELSAT 902 (IS-902)   
1 26900U 01039A   26064.92986290 -.00000287  00000+0  00000+0 0  9999
2 26900   5.8564  73.0406 0004602 273.8940 101.3804  1.00271990 89667
SL-12 R/B(2)            
1 26939U 01045D   26064.88427603 -.00000146  00000+0  00000+0 0  9995
2 26939  13.8092  12.8628 0025849  24.9070 164.3268  1.00209541 89695
